SOYUZ-MS 28             
1 66664U 25275A   25362.85596041  .00017802  00000+0  32007-3 0  9997
2 66664  51.6322  62.6586 0003255 316.0304  44.0425 15.49920091  1284
1998-067XS              
1 66906U 98067XS  25362.19312282  .00034866  00000+0  58581-3 0  9999
2 66906  51.6324  65.7333 0002613 281.7047  78.3649 15.51427236  4016
1998-067XT              
1 66907U 98067XT  25363.20550824  .00090626  00000+0  13858-2 0  9992
2 66907  51.6313  60.4941 0003877 329.1285  30.9477 15.53618513  4178
1998-067XU              
1 66908U 98067XU  25362.88270316  .00077397  00000+0  11893-2 0  9998
2 66908  51.6310  62.0877 0003933 323.7931  36.2792 15.53556067  4122
SILVERSAT               
1 66909U 98067XV  25362.88034630  .00099141  00000+0  14962-2 0  9997
2 66909  51.6305  62.0720 0003938 330.5413  29.5355 15.53938859  4123
1998-067XW              
1 66910U 98067XW  25362.87895263  .00090062  00000+0  13684-2 0  9998
2 66910  51.6305  62.0627 0003591 300.2223  59.8411 15.53800298  4123
1998-067XX              
1 66911U 98067XX  25362.87373182  .00110783  00000+0  16383-2 0  9992
2 66911  51.6302  62.0283 0003332 311.4329  48.6375 15.54443856  4111
1998-067XY              
1 66912U 98067XY  25363.21210296  .00069692  00000+0  11008-2 0  9999
2 66912  51.6316  60.5380 0003969 318.2962  41.7725 15.52839707  4162
